NORAD_CAT_ID,OBJECT_NAME,OBJECT_TYPE,EPOCH,MEAN_MOTION,ECCENTRICITY,INCLINATION,RA_OF_ASC_NODE,ARG_OF_PERICENTER,MEAN_ANOMALY,BSTAR,MEAN_MOTION_DOT,MEAN_MOTION_DDOT,TLE_LINE0,TLE_LINE1,TLE_LINE2,SEMIMAJOR_AXIS,PERIOD,APOGEE,PERIGEE,DECAYED
54785.0,STARLINK-5440,PAYLOAD,2023-09-06 22:00:00,15.07248635,0.000132,53.216,135.5131,91.7436,269.6515,-0.0054635,-0.00082587,0.0,0 STARLINK-5440,1 54785U 22175AD  23249.91667824 -.00082587  00000-0 -54635-2 0  9996,2 54785  53.2160 135.5131 0001320  91.7436 269.6515 15.07248635  5711,6922.749,95.538,545.528,543.7,0.0
54785.0,STARLINK-5440,PAYLOAD,2023-09-07 14:00:01,15.07172952,0.0001312,53.2158,132.5265,106.3646,274.3029,0.0040007,0.0006109,0.0,0 STARLINK-5440,1 54785U 22175AD  23250.58334491  .00061090  00000-0  40007-2 0  9994,2 54785  53.2158 132.5265 0001312 106.3646 274.3029 15.07172952 40530,6922.981,95.543,545.754,543.937,0.0
54785.0,STARLINK-5440,PAYLOAD,2023-09-07 22:00:00,15.07233194,0.0001289,53.2158,131.0356,96.3716,293.9112,-0.0041736,-0.00063299,0.0,0 STARLINK-5440,1 54785U 22175AD  23250.91667824 -.00063299  00000-0 -41736-2 0  9995,2 54785  53.2158 131.0356 0001289  96.3716 293.9112 15.07233194  5867,6922.796,95.539,545.553,543.769,0.0
54785.0,STARLINK-5440,PAYLOAD,2023-09-07 23:27:30,15.0720339,0.000148,53.217,130.7622,81.2239,278.892,-6.1104e-05,-1.213e-05,0.0,0 STARLINK-5440,1 54785U 22175AD  23250.97743760 -.00001213  00000-0 -61104-4 0  9996,2 54785  53.2170 130.7622 0001480  81.2239 278.8920 15.07203390 40592,6922.887,95.541,545.777,543.728,0.0
54785.0,STARLINK-5440,PAYLOAD,2023-09-08 21:44:21,15.07196004,0.0001092,53.2176,126.6039,113.5775,246.5332,-6.3098e-06,-3.79e-06,0.0,0 STARLINK-5440,1 54785U 22175AD  23251.90580511 -.00000379  00000-0 -63098-5 0  9990,2 54785  53.2176 126.6039 0001092 113.5775 246.5332 15.07196004 42894,6922.91,95.542,545.531,544.019,0.0
54785.0,STARLINK-5440,PAYLOAD,2023-09-09 02:30:50,15.07191952,0.0001076,53.2172,125.7131,114.8213,245.289,-3.5645e-05,-8.26e-06,0.0,0 STARLINK-5440,1 54785U 22175AD  23252.10474547 -.00000826  00000-0 -35645-4 0  9997,2 54785  53.2172 125.7131 0001076 114.8213 245.2890 15.07191952 40762,6922.922,95.542,545.532,544.042,0.0
54785.0,STARLINK-5440,PAYLOAD,2023-09-09 08:52:47,15.07194591,0.0001063,53.2175,124.5251,110.4072,249.7033,-1.3794e-05,-4.93e-06,0.0,0 STARLINK-5440,1 54785U 22175AD  23252.36999243 -.00000493  00000-0 -13794-4 0  9991,2 54785  53.2175 124.5251 0001063 110.4072 249.7033 15.07194591 42960,6922.914,95.542,545.515,544.043,0.0
54785.0,STARLINK-5440,PAYLOAD,2023-09-10 00:47:39,15.07208525,0.0001101,53.2172,121.5565,101.1254,258.9862,7.8042e-05,9.05e-06,0.0,0 STARLINK-5440,1 54785U 22175AD  23253.03310119  .00000905  00000-0  78042-4 0  9998,2 54785  53.2172 121.5565 0001101 101.1254 258.9862 15.07208525 40901,6922.872,95.541,545.499,543.974,0.0
54785.0,STARLINK-5440,PAYLOAD,2023-09-11 00:40:00,15.07198168,0.0001109,53.2167,117.1035,102.9469,257.1647,7.5049e-05,8.59e-06,0.0,0 STARLINK-5440,1 54785U 22175AD  23254.02778690  .00000859  00000-0  75049-4 0  9992,2 54785  53.2167 117.1035 0001109 102.9469 257.1647 15.07198168 41053,6922.903,95.542,545.536,544.001,0.0
54785.0,STARLINK-5440,PAYLOAD,2023-09-11 08:37:16,15.07315638,4.74e-05,53.2169,115.6184,199.5035,160.5938,0.0009886,0.00014842,0.0,0 STARLINK-5440,1 54785U 22175AD  23254.35922418  .00014842  00000-0  98860-3 0  9999,2 54785  53.2169 115.6184 0000474 199.5035 160.5938 15.07315638 41107,6922.544,95.534,544.737,544.081,0.0
54785.0,STARLINK-5440,PAYLOAD,2023-09-11 18:09:50,15.07564135,0.0003615,53.2177,113.8342,139.5875,220.5386,0.0028096,0.0004317,0.0,0 STARLINK-5440,1 54785U 22175AD  23254.75682950  .00043170  00000-0  28096-2 0  9996,2 54785  53.2177 113.8342 0003615 139.5875 220.5386 15.07564135 41166,6921.783,95.518,546.15,541.146,0.0
54785.0,STARLINK-5440,PAYLOAD,2023-09-12 02:06:54,15.07773205,0.0001166,53.2168,112.3487,60.9482,299.1627,0.0043117,0.00067002,0.0,0 STARLINK-5440,1 54785U 22175AD  23255.08812714  .00067002  00000-0  43117-2 0  9997,2 54785  53.2168 112.3487 0001166  60.9482 299.1627 15.07773205 41216,6921.143,95.505,543.815,542.201,0.0
54785.0,STARLINK-5440,PAYLOAD,2023-09-12 03:42:18,15.07813308,0.0001428,53.2171,112.0467,124.7944,235.3182,0.0045961,0.00071565,0.0,0 STARLINK-5440,1 54785U 22175AD  23255.15437790  .00071565  00000-0  45961-2 0  9990,2 54785  53.2171 112.0467 0001428 124.7944 235.3182 15.07813308 41226,6921.02,95.503,543.874,541.897,0.0
54785.0,STARLINK-5440,PAYLOAD,2023-09-12 13:14:49,15.07963506,9.65e-05,53.2181,110.2669,78.9335,281.1765,0.0053281,0.00083489,0.0,0 STARLINK-5440,1 54785U 22175AD  23255.55195737  .00083489  00000-0  53281-2 0  9998,2 54785  53.2181 110.2669 0000965  78.9335 281.1765 15.07963506 43448,6920.561,95.493,543.094,541.758,0.0
54785.0,STARLINK-5440,PAYLOAD,2023-09-12 18:00:52,15.08167218,0.0001048,53.218,109.3722,103.9417,256.1692,0.0066965,0.00105926,0.0,0 STARLINK-5440,1 54785U 22175AD  23255.75061146  .00105926  00000-0  66965-2 0  9990,2 54785  53.2180 109.3722 0001048 103.9417 256.1692 15.08167218 41311,6919.938,95.48,542.528,541.077,0.0
54785.0,STARLINK-5440,PAYLOAD,2023-09-12 21:11:43,15.08190782,8.6e-05,53.2176,108.7788,88.701,271.408,0.006641,0.00105101,0.0,0 STARLINK-5440,1 54785U 22175AD  23255.88314302  .00105101  00000-0  66410-2 0  9999,2 54785  53.2176 108.7788 0000860  88.7010 271.4080 15.08190782 43495,6919.866,95.479,542.326,541.135,0.0
54785.0,STARLINK-5440,PAYLOAD,2023-09-13 14:00:01,15.08829885,0.0001131,53.2164,105.6404,98.8614,105.2346,0.0023602,0.00037464,0.0,0 STARLINK-5440,1 54785U 22175AD  23256.58334491  .00037464  00000-0  23602-2 0  9990,2 54785  53.2164 105.6404 0001131  98.8614 105.2346 15.08829885 41431,6917.911,95.438,540.559,538.994,0.0
54785.0,STARLINK-5440,PAYLOAD,2023-09-13 22:00:00,15.08837732,0.0001108,53.2161,104.1457,86.689,129.0003,-0.00050084,-8.249e-05,0.0,0 STARLINK-5440,1 54785U 22175AD  23256.91667824 -.00008249  00000-0 -50084-3 0  9992,2 54785  53.2161 104.1457 0001108  86.6890 129.0003 15.08837732 41484,6917.887,95.438,540.519,538.986,0.0
54785.0,STARLINK-5440,PAYLOAD,2023-09-14 14:00:01,15.08843128,0.0001118,53.2159,101.1511,103.1853,135.7358,0.0011698,0.0001838,0.0,0 STARLINK-5440,1 54785U 22175AD  23257.58335648  .00018380  00000-0  11698-2 0  9994,2 54785  53.2159 101.1511 0001118 103.1853 135.7358 15.08843128  5869,6917.871,95.437,540.509,538.962,0.0
54785.0,STARLINK-5440,PAYLOAD,2023-09-14 22:00:00,15.08838754,0.0001125,53.2156,99.6564,87.7036,162.7662,-0.0004383,-7.256e-05,0.0,0 STARLINK-5440,1 54785U 22175AD  23257.91667824 -.00007256  00000-0 -43830-3 0  9991,2 54785  53.2156  99.6564 0001125  87.7036 162.7662 15.08838754 41646,6917.884,95.438,540.527,538.971,0.0
54785.0,STARLINK-5440,PAYLOAD,2023-09-15 14:00:01,15.08854208,0.0001145,53.2153,96.6618,98.8326,174.8177,0.00036262,5.49e-05,0.0,0 STARLINK-5440,1 54785U 22175AD  23258.58334491  .00005490  00000-0  36262-3 0  9993,2 54785  53.2153  96.6618 0001145  98.8326 174.8177 15.08854208  5666,6917.837,95.437,540.494,538.91,0.0
54785.0,STARLINK-5440,PAYLOAD,2023-09-15 22:00:00,15.08833981,0.0001143,53.2152,95.1669,80.082,205.1883,-0.00095918,-0.00015518,0.0,0 STARLINK-5440,1 54785U 22175AD  23258.91667824 -.00015518  00000-0 -95918-3 0  9996,2 54785  53.2152  95.1669 0001143  80.0820 205.1883 15.08833981 41796,6917.899,95.438,540.555,538.973,0.0
54785.0,STARLINK-5440,PAYLOAD,2023-09-16 06:16:46,15.08840187,0.0001008,53.217,93.6166,78.7484,281.3622,3.748e-05,3.09e-06,0.0,0 STARLINK-5440,1 54785U 22175AD  23259.26165208  .00000309  00000-0  37480-4 0  9995,2 54785  53.2170  93.6166 0001008  78.7484 281.3622 15.08840187 41840,6917.88,95.438,540.442,539.047,0.0
54785.0,STARLINK-5440,PAYLOAD,2023-09-16 12:38:20,15.08816165,0.0001018,53.2171,92.4278,79.985,280.1257,0.00030455,4.559e-05,0.0,0 STARLINK-5440,1 54785U 22175AD  23259.52662088  .00004559  00000-0  30455-3 0  9997,2 54785  53.2171  92.4278 0001018  79.9850 280.1257 15.08816165 44048,6917.953,95.439,540.522,539.114,0.0
54785.0,STARLINK-5440,PAYLOAD,2023-09-16 23:46:01,15.08843868,0.0001087,53.2178,90.3458,80.8954,279.2162,1.6111e-05,-3.1e-07,0.0,0 STARLINK-5440,1 54785U 22175AD  23259.99029143 -.00000031  00000-0  16111-4 0  9993,2 54785  53.2178  90.3458 0001087  80.8954 279.2162 15.08843868 44116,6917.869,95.437,540.486,538.982,0.0
54785.0,STARLINK-5440,PAYLOAD,2023-09-17 18:50:38,15.08848804,0.0001093,53.2183,86.7773,97.8223,262.2894,1.8336e-05,4e-08,0.0,0 STARLINK-5440,1 54785U 22175AD  23260.78516625  .00000004  00000-0  18336-4 0  9998,2 54785  53.2183  86.7773 0001093  97.8223 262.2894 15.08848804 42077,6917.853,95.437,540.475,538.962,0.0
54785.0,STARLINK-5440,PAYLOAD,2023-09-18 05:58:19,15.08849575,0.0001104,53.2183,84.6954,92.5131,267.5987,4.7882e-05,4.74e-06,0.0,0 STARLINK-5440,1 54785U 22175AD  23261.24884209  .00000474  00000-0  47882-4 0  9995,2 54785  53.2183  84.6954 0001104  92.5131 267.5987 15.08849575 44303,6917.851,95.437,540.48,538.952,0.0
54785.0,STARLINK-5440,PAYLOAD,2023-09-18 17:06:02,15.08832013,0.0001051,53.2185,82.6133,91.0292,269.0821,5.9771e-05,6.63e-06,0.0,0 STARLINK-5440,1 54785U 22175AD  23261.71253412  .00000663  00000-0  59771-4 0  9993,2 54785  53.2185  82.6133 0001051  91.0292 269.0821 15.08832013 42216,6917.905,95.438,540.497,539.043,0.0
54785.0,STARLINK-5440,PAYLOAD,2023-09-18 18:41:25,15.08839989,0.0001234,53.2185,82.3156,100.158,259.9552,-7.6719e-07,-3e-06,0.0,0 STARLINK-5440,1 54785U 22175AD  23261.77877139 -.00000300  00000-0 -76719-6 0  9990,2 54785  53.2185  82.3156 0001234 100.1580 259.9552 15.08839989 44381,6917.88,95.438,540.599,538.892,0.0
54785.0,STARLINK-5440,PAYLOAD,2023-09-19 18:32:12,15.08851323,0.0001109,53.2176,77.8551,88.0397,272.0722,9.6151e-06,-1.35e-06,0.0,0 STARLINK-5440,1 54785U 22175AD  23262.77236175 -.00000135  00000-0  96151-5 0  9996,2 54785  53.2176  77.8551 0001109  88.0397 272.0722 15.08851323 42378,6917.846,95.437,540.478,538.944,0.0
